IRIDIUM 39              
1 25042U 97069D   25224.60830391  .00000634  00000+0  16052-3 0  9998
2 25042  86.3956 186.9550 0019885 115.0583 245.2688 14.49275137457138
IRIDIUM 38              
1 25043U 97069E   25224.45800443  .00000431  00000+0  13577-3 0  9991
2 25043  86.3964 209.4852 0000368  61.7716 298.3519 14.38155364454041
IRIDIUM 42              
1 25077U 97077A   25224.46368278  .00000392  00000+0  12718-3 0  9995
2 25077  86.3956 215.7188 0001573  77.8656 282.2718 14.36387283449278
IRIDIUM 44              
1 25078U 97077B   25224.47469162  .00000446  00000+0  13448-3 0  9992
2 25078  86.3986 197.5026 0002251 137.1167 223.0208 14.40278856451800
IRIDIUM 45              
1 25104U 97082A   25224.49165696  .00026000  00000+0  88192-3 0  9997
2 25104  86.3590  20.5064 0114361 120.0655 241.1991 15.24230763460614
IRIDIUM 24              
1 25105U 97082B   25224.58337200  .00000450  00000+0  13089-3 0  9994
2 25105  86.3862  56.3630 0009348 247.9473 112.0735 14.42141884451344
IRIDIUM 51              
1 25262U 98018A   25224.51431619  .00034748  00000+0  68792-3 0  9998
2 25262  86.3820  27.8579 0080746  34.1208 326.5200 15.43347688455705
IRIDIUM 57              
1 25273U 98019B   25224.47861335  .00000336  00000+0  10911-3 0  9994
2 25273  86.3973 121.6862 0002067  85.7788 274.3645 14.35924833433071
